{"spkid": "50766987", "covariance": {"labels": ["e", "q", "tp", "node", "peri", "i"], "elements": [{"units": null, "value": ".7226645951893259", "title": "eccentricity", "sigma": 3.13034436313586e-07, "name": "e", "label": "e"}, {"label": "q", "sigma": 4.92222753913088e-07, "name": "q", "units": "au", "value": ".4339735497733901", "title": "perihelion distance"}, {"label": "tp", "name": "tp", "sigma": 1.75515128595288e-05, "units": "TDB", "value": "2458401.448241406428", "title": "time of perihelion passage"}, {"label": "node", "name": "om", "sigma": 2.25226083645109e-05, "value": "251.7890168142653", "title": "longitude of the ascending node", "units": "deg"}, {"name": "w", "sigma": 5.06994173468927e-05, "title": "argument of perihelion", "value": "70.9330993721985", "units": "deg", "label": "peri"}, {"units": "deg", "title": "inclination", "value": "22.30020484755913", "sigma": 2.6356008540234e-05, "name": "i", "label": "i"}], "data": [["9.799055831816438E-14", "-1.540763766550017E-13", "3.802996000996884E-12", "2.485829175899975E-12", "-1.447183755278949E-11", "3.948423704963331E-12"], ["-1.540763766550017E-13", "2.422832394697842E-13", "-5.96257198984964E-12", "-3.924556187989353E-12", "2.277328123409984E-11", "-6.224668131135381E-12"], ["3.802996000996884E-12", "-5.96257198984964E-12", "3.08055603658206E-10", "5.381803567767172E-11", "-4.668364635982536E-10", "7.846631572056264E-11"], ["2.485829175899975E-12", "-3.924556187989353E-12", "5.381803567767172E-11", "5.07267887541136E-10", "-7.86378152457601E-10", "5.241029185352227E-10"], ["-1.447183755278949E-11", "2.277328123409984E-11", "-4.668364635982536E-10", "-7.86378152457601E-10", "2.5704309193144E-9", "-9.996272387928133E-10"], ["3.948423704963331E-12", "-6.224668131135381E-12", "7.846631572056264E-11", "5.241029185352227E-10", "-9.996272387928133E-10", "6.946391861728873E-10"]], "epoch": "2458618.5"}, "elements": [{"label": "e", "value": ".7230105720797388", "title": "eccentricity", "units": null, "sigma": "3.1341E-7", "name": "e"}, {"label": "a", "units": "au", "title": "semi-major axis", "value": "1.564418427126426", "name": "a", "sigma": "1.8177E-8"}, {"sigma": "4.9278E-7", "name": "q", "value": ".4333273651576635", "title": "perihelion distance", "units": "au", "label": "q"}, {"value": "22.29124447900143", "title": "inclination; angle with respect to x-y ecliptic plane", "units": "deg", "sigma": "2.6327E-5", "name": "i", "label": "i"}, {"label": "node", "sigma": "2.2536E-5", "name": "om", "title": "longitude of the ascending node", "value": "251.7070808596507", "units": "deg"}, {"name": "w", "sigma": "5.0629E-5", "title": "argument of perihelion", "value": "71.00378628286393", "units": "deg", "label": "peri"}, {"title": "mean anomaly", "value": "329.6285759752798", "units": "deg", "sigma": "2.4912E-5", "name": "ma", "label": "M"}, {"value": "2461260.796272568806", "title": "time of perihelion passage", "units": "TDB", "name": "tp", "sigma": "5.0436E-5", "label": "tp"}, {"label": "period", "value": "714.7066303872465", "title": "sidereal orbital period", "units": "d", "name": "per", "sigma": "1.2456E-5"}, {"sigma": "8.7789E-9", "name": "n", "units": "deg/d", "title": "mean motion", "value": ".5037031765116586", "label": "n"}, {"label": "Q", "value": "2.695509489095188", "title": "aphelion distance", "units": "au", "sigma": "3.132E-8", "name": "ad"}], "epoch": "2461200.5"}